LEMUR-2-FINNIAN         
1 66782U 25276DX  26197.75549820  .00001438  00000+0  11832-3 0  9999
2 66782  97.5358 267.8266 0007215 354.7845   5.3303 15.00627545 24438
LEMUR-2-STARLIGHT       
1 66783U 25276DY  26198.00435941  .00003825  00000+0  31670-3 0  9991
2 66783  97.5234 267.6244 0014753  41.8788 318.3562 14.99368921 34668
LEMUR-2-TARTIFLETTE     
1 66784U 25276DZ  26197.73583064  .00003442  00000+0  28561-3 0  9991
2 66784  97.5233 267.3730 0013920  51.1069 309.1394 14.99350642 34624
LEMUR-2-VUKASIN         
1 66785U 25276EA  26198.17173855  .00002310  00000+0  18760-3 0  9997
2 66785  97.5216 268.1562 0002730  48.5948 311.5510 15.00556240 34645
LEMUR-2-HOTSPUR-TOM     
1 66786U 25276EB  26198.13078395  .00002945  00000+0  24574-3 0  9991
2 66786  97.5214 267.7279 0013720  41.5297 318.6966 14.99252822 34611
LEMUR-2-MYRA            
1 66787U 25276EC  26198.00353480  .00003308  00000+0  26550-3 0  9999
2 66787  97.5220 267.9128 0018672  48.8003 311.4828 15.00601403 34681
LEMUR-2 FIKRETDENGIZ    
1 67363U 26004A   26197.98275150  .00001639  00000+0  18210-3 0  9992
2 67363  97.8028 196.0882 0010076  50.7070 309.5038 14.88523570 27716
TWILIGHT-1 OBJECT B     
1 67364U 26004B   26198.22253049  .00000854  00000+0  99478-4 0  9998
2 67364  97.8076 196.3240 0009595  39.9869 320.2053 14.87797097 27757
LEMUR-2-MARIO-SOUSA     
1 67365U 26004C   26198.23121037  .00001998  00000+0  21947-3 0  9996
2 67365  97.8001 196.3279 0009685  51.6541 308.5545 14.88736944 27767
LEMUR-2-SONNENBLUME     
1 67367U 26004E   26197.96554138  .00001318  00000+0  14781-3 0  9993
2 67367  97.8001 196.0381 0009298  53.2445 306.9625 14.88458139 27725
LEMUR-2-WOBLER          
1 67368U 26004F   26198.22339324  .00001894  00000+0  20858-3 0  9993
2 67368  97.8052 196.4452 0009361  44.1369 316.0594 14.88706069 27769
LEMUR-2-GRAM-E-SUE      
1 67370U 26004H   26197.94679961  .00001204  00000+0  13514-3 0  9994
2 67370  97.7987 196.0361 0008489  56.2455 303.9570 14.88593718 27723
LEMUR-2-KATIE           
1 67387U 26004AA  26197.96895246  .00002041  00000+0  21596-3 0  9999
2 67387  97.8044 196.6155 0003339  29.9962 330.1447 14.90260082 27747
LEMUR-2-HCS-BAZUS       
1 67388U 26004AB  26198.23586965  .00001526  00000+0  16290-3 0  9998
2 67388  97.8040 196.8571 0002843  28.4863 331.6510 14.90269255 27783
